STARLINK-37342          
1 68752U 26082AA  26113.53999822 -.00569779  00000+0 -25297-2 0  9997
2 68752  97.2876 335.6901 0002103 143.2529 216.8886 15.85617029  1181
