{
  "norad_id": 68752,
  "name": "STARLINK-37342",
  "history": [
    {
      "epoch": "2026-04-23T12:57:35.846208Z",
      "apogee_km": 315.9954435040945,
      "perigee_km": 313.1803495581162,
      "latitude_deg": -2.275360317906731e-05,
      "longitude_deg": -70.295024213697,
      "height_km": 318.89623357620286,
      "semi_major_axis_km": 6692.7248965311055,
      "eccentricity": 0.00021031,
      "inclination_deg": 97.2876,
      "raan_deg": 335.6901,
      "arg_perigee_deg": 143.2529,
      "mean_anomaly_deg": 216.8886,
      "mean_motion_rev_day": 15.85617029
    }
  ]
}